[{"OBJECT_NAME":"STARLINK-34388","OBJECT_ID":"2025-123D","EPOCH":"2025-11-04T12:06:41.920704","MEAN_MOTION":14.98336732,"ECCENTRICITY":0.0002597,"INCLINATION":70.0015,"RA_OF_ASC_NODE":150.2272,"ARG_OF_PERICENTER":272.6078,"MEAN_ANOMALY":87.4784,"EPHEMERIS_TYPE":0,"CLASSIFICATION_TYPE":"U","NORAD_CAT_ID":64294,"ELEMENT_SET_NO":999,"REV_AT_EPOCH":2408,"BSTAR":0.000325,"MEAN_MOTION_DOT":3.788e-5,"MEAN_MOTION_DDOT":0},{"OBJECT_NAME":"STARLINK-34424","OBJECT_ID":"2025-123E","EPOCH":"2025-11-03T23:29:25.301184","MEAN_MOTION":14.98318188,"ECCENTRICITY":0.00024036,"INCLINATION":69.9995,"RA_OF_ASC_NODE":151.5943,"ARG_OF_PERICENTER":268.5911,"MEAN_ANOMALY":91.4973,"EPHEMERIS_TYPE":0,"CLASSIFICATION_TYPE":"U","NORAD_CAT_ID":64295,"ELEMENT_SET_NO":999,"REV_AT_EPOCH":2400,"BSTAR":-5.3484498e-5,"MEAN_MOTION_DOT":-7.31e-6,"MEAN_MOTION_DDOT":0},{"OBJECT_NAME":"STARLINK-34443","OBJECT_ID":"2025-123F","EPOCH":"2025-11-04T00:17:27.228480","MEAN_MOTION":14.9833647,"ECCENTRICITY":0.00023573,"INCLINATION":69.9993,"RA_OF_ASC_NODE":151.32,"ARG_OF_PERICENTER":271.6603,"MEAN_ANOMALY":88.4286,"EPHEMERIS_TYPE":0,"CLASSIFICATION_TYPE":"U","NORAD_CAT_ID":64296,"ELEMENT_SET_NO":999,"REV_AT_EPOCH":2401,"BSTAR":0.00019935165,"MEAN_MOTION_DOT":2.287e-5,"MEAN_MOTION_DDOT":0},{"OBJECT_NAME":"STARLINK-34369","OBJECT_ID":"2025-123G","EPOCH":"2025-11-03T19:47:20.541120","MEAN_MOTION":14.98347409,"ECCENTRICITY":0.00025854,"INCLINATION":69.9997,"RA_OF_ASC_NODE":151.8643,"ARG_OF_PERICENTER":266.5754,"MEAN_ANOMALY":93.511,"EPHEMERIS_TYPE":0,"CLASSIFICATION_TYPE":"U","NORAD_CAT_ID":64297,"ELEMENT_SET_NO":999,"REV_AT_EPOCH":2276,"BSTAR":0.00042704403,"MEAN_MOTION_DOT":5.008e-5,"MEAN_MOTION_DDOT":0},{"OBJECT_NAME":"STARLINK-34391","OBJECT_ID":"2025-123H","EPOCH":"2025-11-04T07:36:02.913696","MEAN_MOTION":14.98335094,"ECCENTRICITY":0.0003101,"INCLINATION":69.9944,"RA_OF_ASC_NODE":150.373,"ARG_OF_PERICENTER":268.9418,"MEAN_ANOMALY":91.1386,"EPHEMERIS_TYPE":0,"CLASSIFICATION_TYPE":"U","NORAD_CAT_ID":64298,"ELEMENT_SET_NO":999,"REV_AT_EPOCH":2284,"BSTAR":0.00032628,"MEAN_MOTION_DOT":3.803e-5,"MEAN_MOTION_DDOT":0},{"OBJECT_NAME":"STARLINK-34378","OBJECT_ID":"2025-123J","EPOCH":"2025-11-03T21:05:26.962656","MEAN_MOTION":14.98338556,"ECCENTRICITY":0.0002828,"INCLINATION":69.9989,"RA_OF_ASC_NODE":151.6593,"ARG_OF_PERICENTER":270.3069,"MEAN_ANOMALY":89.7766,"EPHEMERIS_TYPE":0,"CLASSIFICATION_TYPE":"U","NORAD_CAT_ID":64299,"ELEMENT_SET_NO":999,"REV_AT_EPOCH":2277,"BSTAR":0.0004886,"MEAN_MOTION_DOT":5.743e-5,"MEAN_MOTION_DDOT":0},{"OBJECT_NAME":"STARLINK-34376","OBJECT_ID":"2025-123K","EPOCH":"2025-11-04T12:06:27.605952","MEAN_MOTION":14.98335448,"ECCENTRICITY":0.000267,"INCLINATION":69.9998,"RA_OF_ASC_NODE":150.2317,"ARG_OF_PERICENTER":270.405,"MEAN_ANOMALY":89.6803,"EPHEMERIS_TYPE":0,"CLASSIFICATION_TYPE":"U","NORAD_CAT_ID":64300,"ELEMENT_SET_NO":999,"REV_AT_EPOCH":2286,"BSTAR":0.00020952,"MEAN_MOTION_DOT":2.408e-5,"MEAN_MOTION_DDOT":0},{"OBJECT_NAME":"STARLINK-34372","OBJECT_ID":"2025-123L","EPOCH":"2025-11-03T13:16:32.088288","MEAN_MOTION":14.98335834,"ECCENTRICITY":0.00026502,"INCLINATION":69.9988,"RA_OF_ASC_NODE":152.5272,"ARG_OF_PERICENTER":271.4262,"MEAN_ANOMALY":88.6593,"EPHEMERIS_TYPE":0,"CLASSIFICATION_TYPE":"U","NORAD_CAT_ID":64301,"ELEMENT_SET_NO":999,"REV_AT_EPOCH":2272,"BSTAR":0.00025646169,"MEAN_MOTION_DOT":2.969e-5,"MEAN_MOTION_DDOT":0},{"OBJECT_NAME":"STARLINK-34379","OBJECT_ID":"2025-123M","EPOCH":"2025-11-04T06:41:54.429216","MEAN_MOTION":15.42727522,"ECCENTRICITY":6.32e-5,"INCLINATION":69.9988,"RA_OF_ASC_NODE":143.4245,"ARG_OF_PERICENTER":314.6331,"MEAN_ANOMALY":45.4799,"EPHEMERIS_TYPE":0,"CLASSIFICATION_TYPE":"U","NORAD_CAT_ID":64302,"ELEMENT_SET_NO":999,"REV_AT_EPOCH":2301,"BSTAR":0.0012031,"MEAN_MOTION_DOT":0.0005292,"MEAN_MOTION_DDOT":0},{"OBJECT_NAME":"STARLINK-34356","OBJECT_ID":"2025-123N","EPOCH":"2025-11-03T20:29:07.266912","MEAN_MOTION":14.983386,"ECCENTRICITY":0.0002728,"INCLINATION":69.9964,"RA_OF_ASC_NODE":151.5672,"ARG_OF_PERICENTER":268.557,"MEAN_ANOMALY":91.5276,"EPHEMERIS_TYPE":0,"CLASSIFICATION_TYPE":"U","NORAD_CAT_ID":64303,"ELEMENT_SET_NO":999,"REV_AT_EPOCH":2277,"BSTAR":0.00032747,"MEAN_MOTION_DOT":3.817e-5,"MEAN_MOTION_DDOT":0},{"OBJECT_NAME":"STARLINK-34360","OBJECT_ID":"2025-123P","EPOCH":"2025-11-03T23:11:37.030848","MEAN_MOTION":14.98354203,"ECCENTRICITY":0.00029721,"INCLINATION":69.9991,"RA_OF_ASC_NODE":151.5562,"ARG_OF_PERICENTER":264.4819,"MEAN_ANOMALY":95.6001,"EPHEMERIS_TYPE":0,"CLASSIFICATION_TYPE":"U","NORAD_CAT_ID":64304,"ELEMENT_SET_NO":999,"REV_AT_EPOCH":2278,"BSTAR":0.00049683719,"MEAN_MOTION_DOT":5.844e-5,"MEAN_MOTION_DDOT":0},{"OBJECT_NAME":"STARLINK-34383","OBJECT_ID":"2025-123Q","EPOCH":"2025-11-04T07:36:19.664928","MEAN_MOTION":14.98336967,"ECCENTRICITY":0.0002498,"INCLINATION":69.995,"RA_OF_ASC_NODE":150.7715,"ARG_OF_PERICENTER":273.6978,"MEAN_ANOMALY":86.3895,"EPHEMERIS_TYPE":0,"CLASSIFICATION_TYPE":"U","NORAD_CAT_ID":64305,"ELEMENT_SET_NO":999,"REV_AT_EPOCH":2283,"BSTAR":0.00025127,"MEAN_MOTION_DOT":2.907e-5,"MEAN_MOTION_DDOT":0},{"OBJECT_NAME":"STARLINK-34355","OBJECT_ID":"2025-123R","EPOCH":"2025-11-03T23:29:38.724288","MEAN_MOTION":14.98337414,"ECCENTRICITY":0.00025447,"INCLINATION":69.9981,"RA_OF_ASC_NODE":151.5997,"ARG_OF_PERICENTER":269.2051,"MEAN_ANOMALY":90.8817,"EPHEMERIS_TYPE":0,"CLASSIFICATION_TYPE":"U","NORAD_CAT_ID":64306,"ELEMENT_SET_NO":999,"REV_AT_EPOCH":2278,"BSTAR":0.00027934331,"MEAN_MOTION_DOT":3.242e-5,"MEAN_MOTION_DDOT":0},{"OBJECT_NAME":"STARLINK-34380","OBJECT_ID":"2025-123S","EPOCH":"2025-11-03T23:23:38.004288","MEAN_MOTION":14.98338771,"ECCENTRICITY":0.00028185,"INCLINATION":69.9986,"RA_OF_ASC_NODE":151.5861,"ARG_OF_PERICENTER":269.9825,"MEAN_ANOMALY":90.1011,"EPHEMERIS_TYPE":0,"CLASSIFICATION_TYPE":"U","NORAD_CAT_ID":64307,"ELEMENT_SET_NO":999,"REV_AT_EPOCH":2278,"BSTAR":0.00031980888,"MEAN_MOTION_DOT":3.726e-5,"MEAN_MOTION_DDOT":0},{"OBJECT_NAME":"STARLINK-34374","OBJECT_ID":"2025-123T","EPOCH":"2025-11-03T13:28:47.884512","MEAN_MOTION":14.98339268,"ECCENTRICITY":0.00028824,"INCLINATION":69.9999,"RA_OF_ASC_NODE":152.5514,"ARG_OF_PERICENTER":269.8357,"MEAN_ANOMALY":90.2472,"EPHEMERIS_TYPE":0,"CLASSIFICATION_TYPE":"U","NORAD_CAT_ID":64308,"ELEMENT_SET_NO":999,"REV_AT_EPOCH":2272,"BSTAR":0.00048446718,"MEAN_MOTION_DOT":5.694e-5,"MEAN_MOTION_DDOT":0},{"OBJECT_NAME":"STARLINK-34370","OBJECT_ID":"2025-123U","EPOCH":"2025-11-03T19:41:18.358368","MEAN_MOTION":14.98340626,"ECCENTRICITY":0.00022047,"INCLINATION":69.9981,"RA_OF_ASC_NODE":151.8467,"ARG_OF_PERICENTER":270.1432,"MEAN_ANOMALY":89.9475,"EPHEMERIS_TYPE":0,"CLASSIFICATION_TYPE":"U","NORAD_CAT_ID":64309,"ELEMENT_SET_NO":999,"REV_AT_EPOCH":2276,"BSTAR":0.00036443566,"MEAN_MOTION_DOT":4.259e-5,"MEAN_MOTION_DDOT":0}]
