STARLINK-34388          
1 64294U 25123D   25308.50465186  .00003788  00000+0  32500-3 0  9999
2 64294  70.0015 150.2272 0002597 272.6078  87.4784 14.98336732 24082
STARLINK-34424          
1 64295U 25123E   25307.97876506 -.00000731  00000+0 -53484-4 0  9994
2 64295  69.9995 151.5943 0002403 268.5911  91.4973 14.98318188 24004
STARLINK-34443          
1 64296U 25123F   25308.01212070  .00002287  00000+0  19935-3 0  9999
2 64296  69.9993 151.3200 0002357 271.6603  88.4286 14.98336470 24016
STARLINK-34369          
1 64297U 25123G   25307.82454330  .00005008  00000+0  42704-3 0  9999
2 64297  69.9997 151.8643 0002585 266.5754  93.5110 14.98347409 22767
STARLINK-34391          
1 64298U 25123H   25308.31670039  .00003803  00000+0  32628-3 0  9996
2 64298  69.9944 150.3730 0003101 268.9418  91.1386 14.98335094 22844
STARLINK-34378          
1 64299U 25123J   25307.87878429  .00005743  00000+0  48860-3 0  9990
2 64299  69.9989 151.6593 0002828 270.3069  89.7766 14.98338556 22772
STARLINK-34376          
1 64300U 25123K   25308.50448618  .00002408  00000+0  20952-3 0  9994
2 64300  69.9998 150.2317 0002670 270.4050  89.6803 14.98335448 22868
STARLINK-34372          
1 64301U 25123L   25307.55314917  .00002969  00000+0  25646-3 0  9990
2 64301  69.9988 152.5272 0002650 271.4262  88.6593 14.98335834 22726
STARLINK-34379          
1 64302U 25123M   25308.27910219  .00052920  00000+0  12031-2 0  9993
2 64302  69.9988 143.4245 0000632 314.6331  45.4799 15.42727522 23012
STARLINK-34356          
1 64303U 25123N   25307.85355633  .00003817  00000+0  32747-3 0  9998
2 64303  69.9964 151.5672 0002728 268.5570  91.5276 14.98338600 22770
STARLINK-34360          
1 64304U 25123P   25307.96640082  .00005844  00000+0  49684-3 0  9996
2 64304  69.9991 151.5562 0002972 264.4819  95.6001 14.98354203 22780
STARLINK-34383          
1 64305U 25123Q   25308.31689427  .00002907  00000+0  25127-3 0  9996
2 64305  69.9950 150.7715 0002498 273.6978  86.3895 14.98336967 22839
STARLINK-34355          
1 64306U 25123R   25307.97892042  .00003242  00000+0  27934-3 0  9998
2 64306  69.9981 151.5997 0002544 269.2051  90.8817 14.98337414 22786
STARLINK-34380          
1 64307U 25123S   25307.97474542  .00003726  00000+0  31981-3 0  9994
2 64307  69.9986 151.5861 0002818 269.9825  90.1011 14.98338771 22788
STARLINK-34374          
1 64308U 25123T   25307.56166533  .00005694  00000+0  48447-3 0  9999
2 64308  69.9999 152.5514 0002882 269.8357  90.2472 14.98339268 22727
STARLINK-34370          
1 64309U 25123U   25307.82035137  .00004259  00000+0  36444-3 0  9994
2 64309  69.9981 151.8467 0002204 270.1432  89.9475 14.98340626 22767
